{"type":"FeatureCollection","features":[{"type":"Feature","properties":{"name":"מחוז הצפון","osm_id":1375620},"geometry":{"type":"MultiPolygon","coordinates":[[[[35.0274748,32.5992114],[35.0363747,32.5918714],[35.030412,32.5848398],[35.0430367,32.5842191],[35.0422363,32.5729075],[35.053204,32.5711828],[35.0312507,32.5617287],[35.082727,32.5441449],[35.0868307,32.5303829],[35.1001394,32.5425797],[35.1384455,32.5413016],[35.1480363,32.5600416],[35.1779794,32.5638081],[35.2033193,32.5421072],[35.2245704,32.5521479],[35.2521737,32.5232606],[35.28859,32.5107209],[35.3434444,32.5192184],[35.3700376,32.5153629],[35.4040547,32.4992154],[35.4203011,32.4588925],[35.4102977,32.4364883],[35.4200134,32.4163755],[35.4403223,32.4060091],[35.4670762,32.4124379],[35.5411627,32.3871571],[35.5549603,32.3890173],[35.5463607,32.4008803],[35.5605013,32.4009981],[35.5613703,32.4111974],[35.551768,32.4223737],[35.5622394,32.4239314],[35.5555339,32.4309045],[35.5658228,32.4357853],[35.5664236,32.452943],[35.573848,32.458746],[35.5623789,32.4634805],[35.5698783,32.4772027],[35.5653743,32.4809637],[35.580175,32.4874065],[35.5751176,32.4972134],[35.5583228,32.5020543],[35.5645453,32.5069986],[35.5623951,32.5146007],[35.55992,32.5073388],[35.5525128,32.5147493],[35.5670497,32.5251592],[35.5598905,32.531279],[35.5614354,32.5448824],[35.5694177,32.5388769],[35.5694177,32.5519727],[35.5769708,32.5526238],[35.5704476,32.5654282],[35.5768849,32.5685386],[35.5781081,32.5970235],[35.5671797,32.596553],[35.5727651,32.6137357],[35.5615258,32.6247368],[35.5681302,32.6423608],[35.5612638,32.6459022],[35.5862661,32.6415762],[35.5934988,32.6530148],[35.6056959,32.6513624],[35.5982,32.6677432],[35.6169563,32.6802709],[35.6745165,32.6847881],[35.6751931,32.705348],[35.7161048,32.7153368],[35.7258439,32.7268927],[35.7326138,32.7229935],[35.7825564,32.7743256],[35.8003136,32.7822758],[35.8376774,32.8281659],[35.8443799,32.870215],[35.8614552,32.907827],[35.8950234,32.9448773],[35.8713235,32.9814186],[35.850451,33.102351],[35.816977,33.1129915],[35.818007,33.1273686],[35.8444429,33.167612],[35.8376806,33.1930585],[35.8171568,33.2031106],[35.8150621,33.2449606],[35.7774064,33.2767315],[35.813197,33.3169602],[35.7733352,33.3356317],[35.7413153,33.3255745],[35.7220001,33.3293332],[35.7069965,33.3053195],[35.6587935,33.2739759],[35.6214514,33.278601],[35.6242393,33.2423856],[35.5837167,33.2660838],[35.5845866,33.2817016],[35.567828,33.2903412],[35.5559631,33.258473],[35.5464171,33.2543153],[35.5467895,33.2380315],[35.5372378,33.2305934],[35.5419782,33.1920784],[35.52711,33.1419641],[35.5324645,33.1284333],[35.519836,33.1163183],[35.5028447,33.1143058],[35.5035095,33.089483],[35.4458651,33.0906489],[35.4314413,33.0654374],[35.3539238,33.0574718],[35.3237915,33.083739],[35.3176284,33.104586],[35.3005716,33.1004703],[35.2941622,33.1080938],[35.2387967,33.0921664],[35.2116982,33.0997508],[35.2075225,33.0875704],[35.1935476,33.085443],[35.1776899,33.094194],[35.1555134,33.0863873],[35.1555489,33.0915198],[35.0995317,33.0952633],[35.0964735,33.0461182],[35.0626392,32.9144545],[35.0749994,32.9162096],[35.0725851,32.8886218],[35.0877876,32.8867244],[35.0903045,32.873667],[35.1009414,32.8717886],[35.1068419,32.8449942],[35.1143745,32.840706],[35.1125059,32.8281317],[35.1226301,32.832272],[35.121959,32.8266985],[35.1514787,32.8231353],[35.1474976,32.8060457],[35.1591283,32.7958228],[35.1489539,32.7822214],[35.1609486,32.7729425],[35.1530892,32.7692712],[35.1519259,32.7516722],[35.143686,32.7521545],[35.1430557,32.7403689],[35.1291095,32.736565],[35.1299043,32.729454],[35.1396885,32.7306058],[35.1468596,32.7404344],[35.1499993,32.7387494],[35.1505031,32.7291523],[35.1316979,32.7182777],[35.1341262,32.7027294],[35.1105353,32.7024282],[35.1037901,32.6607648],[35.0791041,32.6511849],[35.0628892,32.6618602],[35.0792092,32.643701],[35.0447248,32.645732],[35.0519967,32.6339757],[35.0438658,32.6268574],[35.0581078,32.6229249],[35.0274748,32.5992114]]]]}},{"type":"Feature","properties":{"name":"מחוז ירושלים","osm_id":1384720},"geometry":{"type":"MultiPolygon","coordinates":[[[[34.8348609,31.7838636],[34.8438558,31.7616106],[34.8397293,31.7561549],[34.8753762,31.7490095],[34.8593464,31.7318804],[34.8716385,31.7148387],[34.8637667,31.694678],[34.8723494,31.6896259],[34.8659698,31.6681961],[34.8801843,31.6673298],[34.8776698,31.6544553],[34.9273876,31.6172457],[34.9492806,31.6138596],[34.9609212,31.6030291],[35.0052822,31.6519365],[35.0852791,31.6906106],[35.1063983,31.7147826],[35.1205184,31.7155676],[35.1337097,31.7341573],[35.1396843,31.728844],[35.1508681,31.7366682],[35.1797631,31.7205453],[35.2057582,31.7236093],[35.2427696,31.7122357],[35.2515395,31.7388376],[35.263365,31.7485727],[35.2517454,31.7701832],[35.2629958,31.789966],[35.2553757,31.8128455],[35.2650458,31.8255465],[35.2510963,31.830389],[35.2570627,31.838294],[35.2510405,31.843904],[35.2300735,31.8426476],[35.2230116,31.8788275],[35.2101191,31.8823091],[35.2041564,31.8706964],[35.2145319,31.8507563],[35.2158685,31.8207011],[35.1841421,31.8259395],[35.1876283,31.8093707],[35.1071809,31.8238548],[35.0727968,31.8560054],[35.056175,31.8551656],[35.0161731,31.8284716],[34.977775,31.8326068],[34.9993393,31.8541412],[34.9615826,31.8544563],[34.9100789,31.8318193],[34.9137611,31.8133919],[34.8398146,31.8016203],[34.8366273,31.7940443],[34.8495578,31.7949982],[34.8519792,31.7871076],[34.8348609,31.7838636]]]]}},{"type":"Feature","properties":{"name":"מחוז תל אביב","osm_id":1400916},"geometry":{"type":"MultiPolygon","coordinates":[[[[34.7287471,32.0048475],[34.7582029,31.9924905],[34.7963523,31.9887223],[34.8293938,32.027396],[34.8544331,32.0165875],[34.8756759,32.0214652],[34.8662068,32.0330099],[34.8676515,32.0710646],[34.8451863,32.0657471],[34.8511968,32.0732194],[34.8432579,32.0728303],[34.8507244,32.1135945],[34.8609417,32.1124598],[34.8679765,32.1216601],[34.8550738,32.1444413],[34.8644281,32.1709532],[34.8368255,32.1914799],[34.8055828,32.2029179],[34.7287471,32.0048475]]]]}},{"type":"Feature","properties":{"name":"מחוז המרכז","osm_id":1400928},"geometry":{"type":"MultiPolygon","coordinates":[[[[34.6604636,31.8639915],[34.6777765,31.8554102],[34.6757256,31.8495272],[34.6830388,31.8618862],[34.7097922,31.8548483],[34.7096523,31.8450409],[34.6929918,31.8408347],[34.6927421,31.8315175],[34.6715805,31.8284032],[34.669767,31.8008236],[34.6773242,31.8106428],[34.6891731,31.8015688],[34.6707536,31.77996],[34.6855866,31.7818379],[34.7069533,31.7697219],[34.7195659,31.7820879],[34.7272653,31.7778733],[34.7316456,31.7880068],[34.721501,31.7891985],[34.7108254,31.8042889],[34.7293191,31.8046765],[34.7372732,31.8153631],[34.7639691,31.804369],[34.7492842,31.7853666],[34.7592564,31.7789996],[34.7642579,31.7938474],[34.7716412,31.793009],[34.7844677,31.7609699],[34.796461,31.7573629],[34.7947881,31.7641557],[34.8230963,31.7802059],[34.8202375,31.7885143],[34.8519792,31.7871076],[34.8495578,31.7949982],[34.8366273,31.7940443],[34.8398146,31.8016203],[34.9168861,31.81509],[34.9100789,31.8318193],[34.9381267,31.8488497],[35.0330934,31.857987],[35.0358011,31.916573],[35.0031689,31.9348399],[35.0087895,31.9436488],[34.9868387,31.9706001],[34.9940685,31.9727834],[35.0051949,32.0218512],[34.9825054,32.0895648],[34.9935901,32.1072909],[34.9849429,32.1274013],[34.9904303,32.1421518],[34.9745141,32.1521349],[34.9772901,32.1587351],[34.9595887,32.1756643],[34.9570901,32.1900344],[35.0201867,32.2344272],[35.0306328,32.2655154],[35.0089904,32.281225],[35.0165557,32.3386768],[35.0418306,32.3466951],[35.049042,32.3765007],[35.0113052,32.377152],[35.0096199,32.3658525],[35.0019748,32.3644996],[34.9980365,32.3919788],[34.9796426,32.4057254],[34.9195338,32.4127553],[34.910257,32.4036965],[34.8644631,32.4123941],[34.8055828,32.2029179],[34.8644281,32.1709532],[34.8550738,32.1444413],[34.8679765,32.1216601],[34.8609417,32.1124598],[34.8507244,32.1135945],[34.8432579,32.0728303],[34.8511968,32.0732194],[34.8451863,32.0657471],[34.8676515,32.0710646],[34.8662068,32.0330099],[34.8756759,32.0214652],[34.8544331,32.0165875],[34.8293938,32.027396],[34.7963523,31.9887223],[34.7582029,31.9924905],[34.7287471,32.0048475],[34.6604636,31.8639915]]]]}},{"type":"Feature","properties":{"name":"מחוז חיפה","osm_id":1400966},"geometry":{"type":"MultiPolygon","coordinates":[[[[34.8623456,32.4768753],[34.8623945,32.4637981],[34.8788474,32.4626711],[34.8644631,32.4123941],[34.910257,32.4036965],[34.9195338,32.4127553],[34.9796426,32.4057254],[34.9980365,32.3919788],[35.0018894,32.3645489],[35.007675,32.3650314],[35.0113052,32.377152],[35.0292176,32.3722063],[35.0417232,32.3776961],[35.0752285,32.4619386],[35.0926675,32.4762537],[35.1090158,32.4760433],[35.1605149,32.5040969],[35.2092055,32.5424283],[35.1784115,32.5637152],[35.1647461,32.5626888],[35.1436983,32.5569234],[35.141831,32.5426617],[35.1001394,32.5425797],[35.0869858,32.5303509],[35.082727,32.5441449],[35.0312507,32.5617287],[35.053204,32.5711828],[35.0422363,32.5729075],[35.0430367,32.5842191],[35.030412,32.5848398],[35.0363747,32.5918714],[35.0274748,32.5992114],[35.0581078,32.6229249],[35.0438658,32.6268574],[35.0519967,32.6339757],[35.0447248,32.645732],[35.0677666,32.6394756],[35.0793993,32.6465729],[35.0631305,32.6620136],[35.0791041,32.6511849],[35.1037901,32.6607648],[35.1105353,32.7024282],[35.1341262,32.7027294],[35.1316979,32.7182777],[35.1505031,32.7291523],[35.1499993,32.7387494],[35.1299043,32.729454],[35.1291095,32.736565],[35.1430557,32.7403689],[35.143686,32.7521545],[35.1519259,32.7516722],[35.1530892,32.7692712],[35.1609486,32.7729425],[35.1489539,32.7822214],[35.1591283,32.7958228],[35.1474976,32.8060457],[35.1514787,32.8231353],[35.121959,32.8266985],[35.1226301,32.832272],[35.1125059,32.8281317],[35.106304,32.8607086],[35.0996504,32.8733441],[35.0903045,32.873667],[35.0877876,32.8867244],[35.0725851,32.8886218],[35.0562773,32.8478929],[35.0361752,32.8266782],[35.0310172,32.846329],[35.0155142,32.8463066],[35.0118486,32.8320154],[34.980618,32.8475328],[34.9486027,32.8264776],[34.9436324,32.7332633],[34.9382169,32.7120134],[34.9232975,32.6996243],[34.9223196,32.6538879],[34.8937808,32.5181767],[34.8817674,32.4768629],[34.8623456,32.4768753]]]]}},{"type":"Feature","properties":{"name":"מחוז הדרום","osm_id":1473952},"geometry":{"type":"MultiPolygon","coordinates":[[[[34.2674994,31.2201289],[34.4033625,30.8591134],[34.496972,30.6792119],[34.5188298,30.5919174],[34.5186383,30.5325223],[34.5577462,30.4946473],[34.5418439,30.4418882],[34.5435437,30.4129491],[34.6114884,30.3710267],[34.8486244,29.7588365],[34.8566397,29.6879139],[34.8785854,29.6436292],[34.8770958,29.6132945],[34.8663724,29.5972113],[34.8784986,29.5433853],[34.9041103,29.4877892],[34.9569663,29.5463594],[34.9778668,29.5437221],[34.978647,29.576841],[35.0196686,29.6560237],[35.0119438,29.6967963],[35.0299897,29.7719223],[35.0439372,29.7880878],[35.0586143,29.8406638],[35.0845351,29.8855474],[35.0772825,29.9249063],[35.0836125,29.9470528],[35.0752869,29.9503437],[35.0889983,29.9634131],[35.0988903,29.9914797],[35.1162281,29.9952337],[35.1103916,30.0092077],[35.1008644,30.0122549],[35.1307121,30.0615556],[35.1458397,30.0627627],[35.1515689,30.0826132],[35.1621905,30.122488],[35.151011,30.1435883],[35.1549592,30.1549996],[35.1445952,30.1625878],[35.1513973,30.2025044],[35.1460114,30.2820482],[35.1546803,30.3067269],[35.1920381,30.346085],[35.165731,30.40066],[35.1619544,30.4413124],[35.1931539,30.4989034],[35.2040329,30.5819564],[35.2221861,30.6190984],[35.2638594,30.6601851],[35.2626767,30.6725239],[35.281817,30.7103691],[35.2936616,30.7122508],[35.2863446,30.7228763],[35.2945414,30.734884],[35.2958074,30.7620109],[35.3138129,30.7696161],[35.3222003,30.7969088],[35.3369014,30.7987423],[35.3411045,30.8154863],[35.3298607,30.8414667],[35.3314915,30.8608645],[35.3542795,30.9083016],[35.3711667,30.926784],[35.3940835,30.9265815],[35.4164664,30.9509396],[35.4259502,31.0448151],[35.4503262,31.0895222],[35.456197,31.128294],[35.4492533,31.1573772],[35.4109642,31.210202],[35.3992998,31.2529455],[35.4066383,31.2814696],[35.4606945,31.3716582],[35.4721786,31.4195657],[35.476012,31.49312],[35.3983344,31.4923265],[35.2270278,31.3730366],[35.1348333,31.3552879],[35.020919,31.3592443],[34.9190341,31.3437284],[34.8930388,31.3676365],[34.8800552,31.3923293],[34.8993793,31.4364073],[34.9383908,31.4892164],[34.9469205,31.5806894],[34.9609212,31.6030291],[34.9492806,31.6138596],[34.9273876,31.6172457],[34.8776698,31.6544553],[34.8801843,31.6673298],[34.8659698,31.6681961],[34.8723494,31.6896259],[34.8637667,31.694678],[34.8716385,31.7148387],[34.8593464,31.7318804],[34.8753762,31.7490095],[34.8397293,31.7561549],[34.8372267,31.7827881],[34.8202375,31.7885143],[34.8230963,31.7802059],[34.7947881,31.7641557],[34.796461,31.7573629],[34.7855118,31.7605193],[34.7719829,31.7927831],[34.7642579,31.7938474],[34.7592564,31.7789996],[34.7492842,31.7853666],[34.7639691,31.804369],[34.7372732,31.8153631],[34.7293191,31.8046765],[34.7108254,31.8042889],[34.721501,31.7891985],[34.7316456,31.7880068],[34.7272653,31.7778733],[34.7195659,31.7820879],[34.7069533,31.7697219],[34.6855866,31.7818379],[34.6707536,31.77996],[34.6891731,31.8015688],[34.6773242,31.8106428],[34.669767,31.8008236],[34.6715805,31.8284032],[34.6927421,31.8315175],[34.6929918,31.8408347],[34.7096523,31.8450409],[34.7097922,31.8548483],[34.6830388,31.8618862],[34.6751117,31.8496714],[34.6777765,31.8554102],[34.6426537,31.8728243],[34.633064,31.8417172],[34.6207536,31.8415995],[34.6113374,31.8232775],[34.6278686,31.8171594],[34.6289789,31.8061403],[34.5768594,31.7177905],[34.5120712,31.6331026],[34.4920184,31.6341914],[34.5111017,31.6295436],[34.4879386,31.5968541],[34.5666802,31.5414644],[34.5654314,31.5332427],[34.5467531,31.5130345],[34.5127105,31.500695],[34.4779067,31.4762123],[34.3802664,31.3895735],[34.3650551,31.3644112],[34.373288,31.3061738],[34.3665475,31.2905287],[34.2674994,31.2201289]]]]}}]}