{"type":"FeatureCollection","features":[{"type":"Feature","properties":{"name":"קרית השרון","name_en":"Kiryat HaSharon","city":"נתניה"},"geometry":{"type":"Polygon","coordinates":[[[34.87426908003951,32.28844515769257],[34.8770519,32.2905072],[34.88004237516509,32.29227197648845],[34.87779052582073,32.30545993223312],[34.86748164530445,32.3138382312759],[34.85897269495161,32.31103630320033],[34.87178819039264,32.289928200069696],[34.87426908003951,32.28844515769257]]]}},{"type":"Feature","properties":{"name":"נאות גנים","name_en":"Ne'ot Ganim","city":"נתניה"},"geometry":{"type":"Polygon","coordinates":[[[34.888246139081694,32.30926922944613],[34.8899635,32.3136754],[34.8918558,32.3169917],[34.8916705,32.317047],[34.8920604,32.318925],[34.8940436,32.3186712],[34.8957654,32.3218824],[34.89601,32.3236711],[34.8899638,32.3232237],[34.8899471,32.3233998],[34.8868088,32.3233107],[34.87783214418779,32.32401363013562],[34.87530868437673,32.31941291419469],[34.8848430702374,32.31032068514025],[34.888246139081694,32.30926922944613]]]}},{"type":"Feature","properties":{"name":"משכנות זבולון","name_en":"Mishkenot Zevulon","city":"נתניה"},"geometry":{"type":"Polygon","coordinates":[[[34.88484307023737,32.310320685140255],[34.875308684376726,32.31941291419469],[34.86748164530446,32.3138382312759],[34.87779052582071,32.30545993223315],[34.88484307023737,32.310320685140255]]]}},{"type":"Feature","properties":{"name":"קריית נורדאו","name_en":"Kiryat Nordau","city":"נתניה"},"geometry":{"type":"Polygon","coordinates":[[[34.86691518341905,32.276578492664534],[34.8679596,32.2775054],[34.8704908,32.281996],[34.8725767,32.2814128],[34.8724744,32.2853355],[34.871303,32.286645],[34.87426908003952,32.28844515769257],[34.871788190392635,32.2899282000697],[34.85576313144366,32.290709619362055],[34.839596415057464,32.285330292629034],[34.86691518341905,32.276578492664534]]]}},{"type":"Feature","properties":{"name":"נאות גולדה","name_en":"Neot Golda","city":"נתניה"},"geometry":{"type":"Polygon","coordinates":[[[34.84445008544673,32.26907501264901],[34.8503094,32.2704248],[34.8529506,32.2718722],[34.8546715,32.2736807],[34.8571867,32.2724076],[34.8594822,32.272012],[34.8622138,32.2733493],[34.8631097,32.2732255],[34.8667249,32.2752906],[34.8661669,32.2759144],[34.86691518341905,32.276578492664534],[34.8395964150575,32.28533029262903],[34.83191766231413,32.284605979771136],[34.83082135060409,32.280666147839966],[34.84445008544673,32.26907501264901]]]}},{"type":"Feature","properties":{"name":"קריית רבין","name_en":"Kiryat Rabin","city":"נתניה"},"geometry":{"type":"Polygon","coordinates":[[[34.88004237516508,32.29227197648845],[34.8812718,32.2929975],[34.8837546,32.2926962],[34.8839821,32.2934],[34.8858656,32.2933867],[34.8860922,32.2939108],[34.886104,32.2994292],[34.8864168,32.3025045],[34.8871286,32.306402],[34.8882461390817,32.30926922944614],[34.88484307023738,32.31032068514026],[34.87779052582072,32.305459932233155],[34.88004237516508,32.29227197648845]]]}},{"type":"Feature","properties":{"name":"נאות שקד","name_en":"Neot Shaked","city":"נתניה"},"geometry":{"type":"Polygon","coordinates":[[[34.8405808766056,32.31573910366227],[34.83191766231413,32.28460597977115],[34.83959641505747,32.285330292629034],[34.85576313144367,32.290709619362055],[34.84828941200861,32.31308282297469],[34.8405808766056,32.31573910366227]]]}},{"type":"Feature","properties":{"name":"רמת ידין","name_en":"Ramat Yadin","city":"נתניה"},"geometry":{"type":"Polygon","coordinates":[[[34.87178819039264,32.28992820006971],[34.85897269495162,32.31103630320034],[34.848289412008626,32.3130828229747],[34.85576313144368,32.290709619362055],[34.87178819039264,32.28992820006971]]]}},{"type":"Feature","properties":{"name":"מכנס","name_en":"Makhnes","city":"נתניה"},"geometry":{"type":"Polygon","coordinates":[[[34.848505252901774,32.344217054303726],[34.8437880147988,32.32726464456955],[34.85622061714573,32.330578181291635],[34.86156445317427,32.339976087697906],[34.85811842590283,32.34271042494188],[34.848505252901774,32.344217054303726]]]}},{"type":"Feature","properties":{"name":"נאות התכלת","name_en":"Ne'ot HaTkhelet","city":"נתניה"},"geometry":{"type":"Polygon","coordinates":[[[34.86360069325036,32.345970777178074],[34.84906762774126,32.34645160256367],[34.84850525290177,32.34421705430372],[34.858118425902845,32.34271042494186],[34.863480275086815,32.345666897574375],[34.86360069325036,32.345970777178074]]]}},{"type":"Feature","properties":{"name":"נווה שלום","name_en":"Neve Shalom","city":"נתניה"},"geometry":{"type":"Polygon","coordinates":[[[34.862427700791606,32.346134415960265],[34.8622932,32.3471205],[34.8625947,32.3471058],[34.8627004,32.3477752],[34.862069,32.3480522],[34.86219064660212,32.348166852910886],[34.850197216092425,32.3509802658694],[34.84906762774126,32.346451602563675],[34.862427700791606,32.346134415960265]]]}},{"type":"Feature","properties":{"name":"פרדס הגדוד","name_en":"Pardes HaGdud","city":"נתניה"},"geometry":{"type":"Polygon","coordinates":[[[34.87581403870153,32.34097588920802],[34.8772411,32.3440344],[34.8736874,32.3449428],[34.86360069325036,32.34597077717807],[34.86472493700757,32.34757236032914],[34.876381796537736,32.35457262143879],[34.8774534,32.3533269],[34.8779319,32.3522977],[34.8784009,32.3524149],[34.8776378,32.3539539],[34.87678570603406,32.35481518007404],[34.86472493700758,32.347572360329146],[34.863654001266994,32.34610530189171],[34.86348027508682,32.34566689757438],[34.86450514666933,32.34072971563361],[34.86795736886532,32.33943370479572],[34.87581403870153,32.34097588920802]]]}},{"type":"Feature","properties":{"name":"קריית צאנז","name_en":"Kiryat Zanz","city":"נתניה"},"geometry":{"type":"Polygon","coordinates":[[[34.86348027508682,32.34566689757439],[34.85811842590284,32.34271042494187],[34.861564453174275,32.339976087697906],[34.86450514666933,32.3407297156336],[34.86348027508682,32.34566689757439]]]}},{"type":"Feature","properties":{"name":"רמת אפרים","name_en":"Ramat Efrayim","city":"נתניה"},"geometry":{"type":"Polygon","coordinates":[[[34.87783214418779,32.32401363013562],[34.8766998,32.3241023],[34.8772643,32.3258532],[34.8782028,32.3256782],[34.87838171071581,32.32622640762591],[34.86237588710617,32.33082510390069],[34.85622061714572,32.33057818129163],[34.8437880147988,32.327264644569546],[34.8405808766056,32.31573910366227],[34.84828941200853,32.31308282297472],[34.858972694951625,32.31103630320033],[34.867481645304466,32.31383823127591],[34.87530868437673,32.3194129141947],[34.87783214418779,32.32401363013562]]]}},{"type":"Feature","properties":{"name":"שיכון המזרחי","name_en":"East Shikun","city":"נתניה"},"geometry":{"type":"Polygon","coordinates":[[[34.86156445317427,32.339976087697906],[34.85622061714571,32.33057818129162],[34.86237588710619,32.330825103900686],[34.86795736886531,32.33943370479571],[34.86450514666934,32.34072971563361],[34.86156445317427,32.339976087697906]]]}},{"type":"Feature","properties":{"name":"נאות הרצל","name_en":"Ne'ot Herzl","city":"נתניה"},"geometry":{"type":"Polygon","coordinates":[[[34.87895542534236,32.326061571415025],[34.87838171071581,32.32622640762591],[34.878538,32.3267053],[34.8775943,32.3268768],[34.8779172,32.3278782],[34.8711213,32.3283705],[34.871718,32.3313414],[34.8749072,32.3319193],[34.8750116,32.3349236],[34.8731817,32.3353342],[34.875814038701535,32.340975889208025],[34.86795736886531,32.339433704795724],[34.862375887106204,32.3308251039007],[34.878955425342376,32.32606157141503],[34.87895542534236,32.326061571415025]]]}},{"type":"Feature","properties":{"name":"עין התכלת","name_en":"Ein HaTkhelet","city":"נתניה"},"geometry":{"type":"Polygon","coordinates":[[[34.862190646602116,32.34816685291088],[34.8629613,32.3488932],[34.8635564,32.3488831],[34.8663038,32.3515313],[34.8666928,32.3511892],[34.8670103,32.3516934],[34.8676033,32.3518145],[34.8676542,32.3516606],[34.8680592,32.352396],[34.8686326,32.3523343],[34.8685955,32.3528427],[34.8691396,32.3528792],[34.8690113,32.353427],[34.8676989,32.3534463],[34.8676029,32.3546832],[34.8670121,32.3553518],[34.8690199,32.3564521],[34.8702567,32.3577424],[34.8710234,32.357646],[34.8746743,32.3560152],[34.87638179653773,32.35457262143879],[34.87678570603406,32.35481518007404],[34.872675,32.3583293],[34.8684546,32.3605283],[34.8674688,32.3598013],[34.869585,32.3580044],[34.8689762,32.3571105],[34.8687889,32.35719],[34.868345,32.3565633],[34.8671922,32.3559207],[34.8661433,32.3569444],[34.8658188,32.3567162],[34.865255,32.3570187],[34.8644171,32.3569651],[34.8643531,32.3573354],[34.8578786,32.356492],[34.8577242,32.3558965],[34.8581145,32.3559546],[34.8585608,32.3542805],[34.8585374,32.3536443],[34.8579622,32.3536605],[34.857745,32.3522403],[34.8559256,32.3523265],[34.8555673,32.3529153],[34.8556765,32.3520952],[34.850712,32.3530441],[34.850197216092425,32.3509802658694],[34.862190646602116,32.34816685291088]]]}},{"type":"Feature","properties":{"name":"מכון וינגייט","name_en":"Wingate Institute","city":"נתניה"},"geometry":{"type":"Polygon","coordinates":[[[34.8247416,32.2607342],[34.8286573,32.2597351],[34.8321299,32.259144],[34.8317726,32.2585751],[34.8320788,32.2576241],[34.8301985,32.2564727],[34.8360351,32.2549044],[34.8401743,32.2656496],[34.8391332,32.2663392],[34.8376381,32.265262],[34.8370207,32.2658275],[34.8375123,32.2667387],[34.83836,32.2673771],[34.8396401,32.267223],[34.8403097,32.2680966],[34.8411043,32.2679621],[34.8414467,32.267652],[34.8425256,32.2684502],[34.84445008544674,32.26907501264902],[34.83082135060409,32.28066614783997],[34.8280569,32.2707315],[34.8247416,32.2607342],[34.8247416,32.2607342]]]}}]}